     2.11           N: GPS NAV DATA                         RINEX VERSION / TYPE
teqc  2019Feb25                         20221121 12:23:22UTCPGM / RUN BY / DATE
OSX ker:10.11.6|Core i5|gcc 4.3 -m64|OSX ker:10.10+|=+      COMMENT
    7.4506D-09  2.2352D-08 -5.9605D-08 -1.1921D-07          ION ALPHA
    8.6016D+04  8.1920D+04 -1.3107D+05 -5.2429D+05          ION BETA
   -7.450580596924D-09-1.332267629550D-14   319488     1532 DELTA-UTC: A0,A1,T,W
                                                            END OF HEADER
16 09  5 18 23 59 44.0 4.985183477402D-05-3.410605131648D-12 0.000000000000D+00
    6.000000000000D+00-3.568750000000D+01 4.764127016442D-09 2.082638789397D+00
   -1.519918441772D-06 5.340879317373D-03 5.498528480530D-06 5.153544628143D+03
    1.727840000000D+05 1.285225152969D-07-2.342794545334D+00 9.872019290924D-08
    9.682615715695D-01 2.772500000000D+02-3.647234973862D-01-8.233914404157D-09
   -1.582208762489D-10 1.000000000000D+00 1.532000000000D+03 0.000000000000D+00
    2.000000000000D+00 0.000000000000D+00-9.778887033463D-09 6.000000000000D+00
    1.724160000000D+05 4.000000000000D+00
